CCSDS_OEM_VERS = 1.0
CREATION_DATE  = 2017-05-11T11:07:25
ORIGINATOR     = GMAT USER

META_START
OBJECT_NAME          = MOPSSat_alt_35785_km_RAAN_0_148
OBJECT_ID            = SatId
CENTER_NAME          = Earth
REF_FRAME            = EME2000
TIME_SYSTEM          = UTC
START_TIME           = 2017-01-01T00:00:00.000
USEABLE_START_TIME   = 2017-01-01T00:00:00.000
USEABLE_STOP_TIME    = 2017-01-02T00:00:00.000
STOP_TIME            = 2017-01-02T00:00:00.000
INTERPOLATION        = Lagrange
INTERPOLATION_DEGREE = 7 
META_STOP


                                                                                   

2017-01-01T16:39:10.000  -4.876324234037558e+04  -2.753766774650959e+04   3.203133820282756e+00   1.745550938341639e+00  -1.316352182062158e+00   3.667373514558533e-05
2017-01-01T16:39:20.000  -4.874578129742408e+04  -2.755082814191691e+04   3.203500222628470e+00   1.746657736844190e+00  -1.315726849626838e+00   3.660672550796045e-05
2017-01-01T16:39:30.000  -4.872830918589859e+04  -2.756398228103010e+04   3.203865954581987e+00   1.747764656597716e+00  -1.315100925782000e+00   3.653965677480137e-05
2017-01-01T16:39:40.000  -4.871082600438817e+04  -2.757713015808233e+04   3.204231015556352e+00   1.748871697643605e+00  -1.314474410014593e+00   3.647252890749103e-05
2017-01-01T16:39:50.000  -4.869333175169867e+04  -2.759027176713715e+04   3.204595404959603e+00   1.749978860009268e+00  -1.313847301818626e+00   3.640534186820246e-05
2017-01-01T16:40:00.000  -4.867582642662356e+04  -2.760340710226236e+04   3.204959122199678e+00   1.751086143722709e+00  -1.313219600686967e+00   3.633809561902534e-05
2017-01-01T16:40:10.000  -4.865831002799496e+04  -2.761653615749118e+04   3.205322166683300e+00   1.752193548809280e+00  -1.312591306113175e+00   3.627079012215980e-05
2017-01-01T16:40:20.000  -4.864078255467062e+04  -2.762965892683323e+04   3.205684537816337e+00   1.753301075292549e+00  -1.311962417591039e+00   3.620342533987171e-05
2017-01-01T16:40:30.000  -4.862324400551569e+04  -2.764277540428716e+04   3.206046235004105e+00   1.754408723195414e+00  -1.311332934613912e+00   3.613600123441738e-05
2017-01-01T16:40:40.000  -4.860569437939652e+04  -2.765588558384547e+04   3.206407257651515e+00   1.755516492540499e+00  -1.310702856674495e+00   3.606851776802137e-05
2017-01-01T16:40:50.000  -4.858813367511830e+04  -2.766898945954160e+04   3.206767605164385e+00   1.756624383354112e+00  -1.310072183262595e+00   3.600097490263270e-05
2017-01-01T16:41:00.000  -4.857056189146636e+04  -2.768208702541837e+04   3.207127276948541e+00   1.757732395663609e+00  -1.309440913866605e+00   3.593337260008752e-05
2017-01-01T16:41:10.000  -4.855297902720636e+04  -2.769517827552802e+04   3.207486272409837e+00   1.758840529497390e+00  -1.308809047973506e+00   3.586571082210817e-05
2017-01-01T16:41:20.000  -4.853538508104191e+04  -2.770826320396325e+04   3.207844590954975e+00   1.759948784887547e+00  -1.308176585067342e+00   3.579798953014367e-05
2017-01-01T16:41:30.000  -4.851778005167776e+04  -2.772134180481050e+04   3.208202231990240e+00   1.761057161865896e+00  -1.307543524631490e+00   3.573020868560916e-05
2017-01-01T16:41:40.000  -4.850016393782620e+04  -2.773441407214527e+04   3.208559194921383e+00   1.762165660463577e+00  -1.306909866148892e+00   3.566236824991222e-05
2017-01-01T16:41:50.000  -4.848253673822406e+04  -2.774748000001882e+04   3.208915479153215e+00   1.763274280709958e+00  -1.306275609102651e+00   3.559446818451257e-05
2017-01-01T16:42:00.000  -4.846489845164745e+04  -2.776053958244798e+04   3.209271084089376e+00   1.764383022631731e+00  -1.305640752976581e+00   3.552650845098483e-05
2017-01-01T16:42:10.000  -4.844724907685965e+04  -2.777359281345356e+04   3.209626009133363e+00   1.765491886256191e+00  -1.305005297253318e+00   3.545848901081545e-05
2017-01-01T16:42:20.000  -4.842958861284475e+04  -2.778663968688888e+04   3.209980253683913e+00   1.766600871596599e+00  -1.304369241422752e+00   3.539040982630839e-05
2017-01-01T16:42:30.000  -4.841191705852473e+04  -2.779968019664758e+04   3.210333817140607e+00   1.767709978669904e+00  -1.303732584971824e+00   3.532227085948969e-05
2017-01-01T16:42:40.000  -4.839423441286459e+04  -2.781271433658626e+04   3.210686698901785e+00   1.768819207490154e+00  -1.303095327388311e+00   3.525407207251389e-05
2017-01-01T16:42:50.000  -4.837654067446571e+04  -2.782574210082438e+04   3.211038898372657e+00   1.769928558094015e+00  -1.302457468146169e+00   3.518581342609315e-05
2017-01-01T16:43:00.000  -4.835883584197130e+04  -2.783876348344505e+04   3.211390414957207e+00   1.771038030515311e+00  -1.301819006720151e+00   3.511749488106340e-05
2017-01-01T16:43:10.000  -4.834111991397477e+04  -2.785177847856293e+04   3.211741248060033e+00   1.772147624790797e+00  -1.301179942582497e+00   3.504911639803028e-05
2017-01-01T16:43:20.000  -4.832339288924766e+04  -2.786478708015481e+04   3.212091397081710e+00   1.773257340945803e+00  -1.300540275211131e+00   3.498067793824807e-05
2017-01-01T16:43:30.000  -4.830565476657082e+04  -2.787778928218559e+04   3.212440861422265e+00   1.774367179004877e+00  -1.299900004083601e+00   3.491217946296915e-05
2017-01-01T16:43:40.000  -4.828790554473383e+04  -2.789078507860800e+04   3.212789640481132e+00   1.775477138991806e+00  -1.299259128677044e+00   3.484362093344097e-05
2017-01-01T16:43:50.000  -4.827014522270715e+04  -2.790377446323842e+04   3.213137733653895e+00   1.776587220918914e+00  -1.298617648474422e+00   3.477500231157252e-05
2017-01-01T16:44:00.000  -4.825237379941079e+04  -2.791675742992439e+04   3.213485140336710e+00   1.777697424801455e+00  -1.297975562956155e+00   3.470632355903942e-05
2017-01-01T16:44:10.000  -4.823459127380536e+04  -2.792973397247854e+04   3.213831859924559e+00   1.778807750651950e+00  -1.297332871603400e+00   3.463758463763557e-05
2017-01-01T16:44:20.000  -4.821679764449062e+04  -2.794270408497142e+04   3.214177891819073e+00   1.779918198505236e+00  -1.296689573883557e+00   3.456878550772175e-05
2017-01-01T16:44:30.000  -4.819899291010689e+04  -2.795566776143857e+04   3.214523235420686e+00   1.781028768393417e+00  -1.296045669264756e+00   3.449992612977660e-05
2017-01-01T16:44:40.000  -4.818117706924438e+04  -2.796862499594684e+04   3.214867890130439e+00   1.782139460351520e+00  -1.295401157212594e+00   3.443100646404667e-05
2017-01-01T16:44:50.000  -4.816335012067234e+04  -2.798157578242575e+04   3.215211855345403e+00   1.783250274403126e+00  -1.294756037198396e+00   3.436202647143306e-05
2017-01-01T16:45:00.000  -4.814551206316954e+04  -2.799452011479289e+04   3.215555130462104e+00   1.784361210571042e+00  -1.294110308693102e+00   3.429298611283455e-05
2017-01-01T16:45:10.000  -4.812766289552351e+04  -2.800745798695362e+04   3.215897714876470e+00   1.785472268877293e+00  -1.293463971167234e+00   3.422388534914534e-05
2017-01-01T16:45:20.000  -4.810980261670367e+04  -2.802038939267749e+04   3.216239607980641e+00   1.786583449332432e+00  -1.292817024097190e+00   3.415472414192338e-05
2017-01-01T16:45:30.000  -4.809193122562872e+04  -2.803331432576499e+04   3.216580809167308e+00   1.787694751949938e+00  -1.292169466956793e+00   3.408550245249196e-05
2017-01-01T16:45:40.000  -4.807404872125994e+04  -2.804623277998051e+04   3.216921317827972e+00   1.788806176740444e+00  -1.291521299220674e+00   3.401622024229939e-05
2017-01-01T16:45:50.000  -4.805615510219083e+04  -2.805914474934874e+04   3.217261133360730e+00   1.789917723737224e+00  -1.290872520349398e+00   3.394687747133406e-05
2017-01-01T16:46:00.000  -4.803825036705824e+04  -2.807205022785739e+04   3.217600255162462e+00   1.791029392970640e+00  -1.290223129804367e+00   3.387747409971267e-05
2017-01-01T16:46:10.000  -4.802033451443658e+04  -2.808494920953408e+04   3.217938682630848e+00   1.792141184474731e+00  -1.289573127043979e+00   3.380801008727136e-05
2017-01-01T16:46:20.000  -4.800240754312238e+04  -2.809784168823952e+04   3.218276415158886e+00   1.793253098269481e+00  -1.288922511533932e+00   3.373848539466331e-05
2017-01-01T16:46:30.000  -4.798446945189959e+04  -2.811072765783830e+04   3.218613452139429e+00   1.794365134375448e+00  -1.288271282738732e+00   3.366889998245475e-05
2017-01-01T16:46:40.000  -4.796652023959366e+04  -2.812360711215937e+04   3.218949792964135e+00   1.795477292810392e+00  -1.287619440123645e+00   3.359925381133259e-05
2017-01-01T16:46:50.000  -4.794855990505125e+04  -2.813648004501183e+04   3.219285437023920e+00   1.796589573590575e+00  -1.286966983153974e+00   3.352954684203126e-05
2017-01-01T16:47:00.000  -4.793058844712949e+04  -2.814934645019163e+04   3.219620383709098e+00   1.797701976731392e+00  -1.286313911294658e+00   3.345977903528566e-05
2017-01-01T16:47:10.000  -4.791260586467457e+04  -2.816220632149701e+04   3.219954632409787e+00   1.798814502248693e+00  -1.285660224009491e+00   3.338995035174938e-05
2017-01-01T16:47:20.000  -4.789461215651211e+04  -2.817505965273611e+04   3.220288182516131e+00   1.799927150159413e+00  -1.285005920760789e+00   3.332006075195450e-05
2017-01-01T16:47:30.000  -4.787660732142560e+04  -2.818790643774156e+04   3.220621033418649e+00   1.801039920482873e+00  -1.284351001008576e+00   3.325011019622954e-05
2017-01-01T16:47:40.000  -4.785859135821099e+04  -2.820074667033169e+04   3.220953184507241e+00   1.802152813237405e+00  -1.283695464212590e+00   3.318009864491201e-05
2017-01-01T16:47:50.000  -4.784056426543844e+04  -2.821358034447908e+04   3.221284635175492e+00   1.803265828455028e+00  -1.283039309823583e+00   3.311002605742442e-05
2017-01-01T16:48:00.000  -4.782252604174110e+04  -2.822640745410607e+04   3.221615384815449e+00   1.804378966163663e+00  -1.282382537293850e+00   3.303989239339347e-05
2017-01-01T16:48:10.000  -4.780447668570595e+04  -2.823922799316218e+04   3.221945432819587e+00   1.805492226393848e+00  -1.281725146073251e+00   3.296969761222759e-05
